[{"OBJECT_NAME":"STARLINK-2603","OBJECT_ID":"2021-038Y","EPOCH":"2026-03-10T00:00:02.999808","MEAN_MOTION":15.30181212,"ECCENTRICITY":0.00014615,"INCLINATION":53.1589,"RA_OF_ASC_NODE":346.3559,"ARG_OF_PERICENTER":79.8952,"MEAN_ANOMALY":186.4167,"EPHEMERIS_TYPE":0,"CLASSIFICATION_TYPE":"U","NORAD_CAT_ID":48375,"ELEMENT_SET_NO":999,"REV_AT_EPOCH":571,"BSTAR":8.0637876e-5,"MEAN_MOTION_DOT":2.028e-5,"MEAN_MOTION_DDOT":0},{"OBJECT_NAME":"CONTINUUM-1","OBJECT_ID":"2023-001AN","EPOCH":"2026-03-09T23:17:35.458656","MEAN_MOTION":15.27981258,"ECCENTRICITY":0.00109493,"INCLINATION":97.3456,"RA_OF_ASC_NODE":133.3964,"ARG_OF_PERICENTER":60.1976,"MEAN_ANOMALY":300.0351,"EPHEMERIS_TYPE":0,"CLASSIFICATION_TYPE":"U","NORAD_CAT_ID":55045,"ELEMENT_SET_NO":999,"REV_AT_EPOCH":17709,"BSTAR":0.00052859897,"MEAN_MOTION_DOT":0.00014395,"MEAN_MOTION_DDOT":0}]
